P/2022 R5 (PANSTARRS),e,15.2940,115.0501,240.5593,3.068830,0.1833347,0.19517497,127.5719,04/22.0/2024,2000,g 16.0,4.0
# From MPEC 2024-H50
C/2022 R6 (PANSTARRS),h,08/25.5897/2025,57.0212,150.7781,319.8628,1.004532,6.566830,2000,5.0,4.0
# From MPEC 2023-HD1
P/2022 S1 (PANSTARRS),e,34.5770,136.0936,262.8010,6.408471,0.0607537,0.50802118,37.1653,04/22.0/2024,2000,g 15.1,4.0
# From MPEC 2022-VC5
C/2022 S3 (PANSTARRS),h,01/21.6959/2023,78.5307,157.3078,267.9664,1.000402,0.838309,2000,17.0,4.0
# From MPEC 2024-GJ3
C/2022 S4 (Lemmon),e,101.2206,220.1740,268.5510,1184,0.0000242,0.99766676,0.0000,07/18.7348/2024,2000,g  8.0,4.0
# From MPEC 2023-HD1
C/2022 S5 (PANSTARRS),e,136.5309,214.8605,232.8052,20.47490,0.0106383,0.89356674,5.4408,04/22.0/2024,2000,g 16.3,4.0
# From MPEC 2024-H50
C/2022 T1 (Lemmon),e,22.5441,236.9185,324.3071,476077,0.0000000,0.99999276,0.0000,02/17.4625/2024,2000,g  9.0,4.0
# From MPEC 2024-GJ3
C/2022 U1 (Leonard),e,128.1496,72.5263,78.5862,7079,0.0000017,0.99940641,0.0000,03/25.8819/2024,2000,g  8.5,4.0
# From MPEC 2023-VM5
C/2022 U2 (ATLAS),e,48.2450,304.4522,147.9376,96.86233,0.0010339,0.98628756,0.0000,01/14.2455/2023,2000,g 16.0,4.0
# From MPEC 2024-GJ3
C/2022 U3 (Bok),h,07/28.3430/2024,33.6499,272.7841,189.0852,1.002525,4.826466,2000,7.5,4.0
# From MPEC 2023-W26
C/2022 U4 (Bok),e,52.0384,132.9190,89.0055,2970,0.0000061,0.99902418,0.0000,08/03.6503/2023,2000,g 10.5,4.0
# From MPEC 2024-H50
C/2022 V2 (Lemmon),e,98.9027,332.8701,168.9505,36.80583,0.0044140,0.94393256,0.7595,04/22.0/2024,2000,g 12.0,4.0
# From MPEC 2023-CD7
P/2022 W1 (Rankin),e,13.4659,38.8169,17.8553,6.970733,0.0535533,0.51665097,31.2745,04/22.0/2024,2000,g 12.5,4.0
# From MPEC 2024-EF7
C/2022 W2 (ATLAS),e,63.5212,320.4505,123.2790,343.4163,0.0001549,0.99090561,0.0000,03/08.7624/2023,2000,g 11.5,4.0
# From MPEC 2024-C04
C/2022 W3 (Leonard),e,103.5629,132.2724,116.5252,279.3310,0.0002111,0.99499601,0.0000,06/22.7736/2023,2000,g 13.0,4.0
# From MPEC 2023-M14
C/2022 Y1 (Hogan),e,18.8552,285.8979,174.7935,12.58348,0.0220802,0.76490497,11.2959,04/22.0/2024,2000,g  9.0,4.0
# From MPEC 2023-TM6
C/2022 Y2 (Lemmon),e,165.8856,216.3510,105.4441,19.77836,0.0112052,0.87154414,4.4421,04/22.0/2024,2000,g 13.5,4.0
# From MPEC 2024-GJ3
C/2023 A1 (Leonard),e,94.7382,318.2997,159.2471,223.7463,0.0002945,0.99179953,0.0000,03/18.6966/2023,2000,g 14.5,4.0
# From MPEC 2023-J95
C/2023 A2 (SWAN),e,94.7101,94.4857,142.5482,441.3813,0.0001063,0.99785474,0.0000,01/20.3675/2023,2000,g 13.5,4.0
# From MPEC 2024-H50
C/2023 A3 (Tsuchinshan-ATLAS),h,09/27.7424/2024,139.1123,21.5596,308.4900,1.000108,0.391450,2000,5.0,4.0
# From MPEC 2024-F34
P/2023 B1 (PANSTARRS),e,14.5882,78.5631,81.5435,7.057798,0.0525654,0.13000600,18.7562,04/22.0/2024,2000,g  5.5,4.0
# From MPEC 2023-XP6
C/2023 B2 (ATLAS),e,40.7709,218.1190,317.3780,595.9588,0.0000677,0.99707614,0.0000,03/10.4881/2023,2000,g 14.5,4.0
# From MPEC 2023-F81
P/2023 B3 (PANSTARRS),e,9.1598,154.0030,240.1815,4.547180,0.1016461,0.12301861,134.6225,04/22.0/2024,2000,g 10.5,4.0
# From MPEC 2024-H50
C/2023 C2 (ATLAS),e,48.3171,301.0079,357.4578,3234,0.0000054,0.99926763,0.0000,11/16.8154/2024,2000,g  7.0,4.0
# From MPEC 2024-D33
C/2023 E1 (ATLAS),e,38.2968,164.5521,105.9334,19.36960,0.0115617,0.94697765,3.4211,04/22.0/2024,2000,g 15.5,4.0
# From MPEC 2023-N01
C/2023 F1 (PANSTARRS),e,131.7474,25.2564,216.6885,264.5884,0.0002290,0.99354148,0.0000,06/28.3747/2023,2000,g 16.0,4.0
# From MPEC 2024-H50
C/2023 F3 (ATLAS),h,02/02.7117/2025,145.9613,109.4533,265.5339,1.004302,5.190638,2000,6.0,4.0
# From MPEC 2023-M14
C/2023 H1 (PANSTARRS),e,21.7787,292.6339,333.8406,1513,0.0000167,0.99706475,0.0000,11/28.3545/2024,2000,g 12.6,4.0
# From MPEC 2024-GJ3
C/2023 H2 (Lemmon),e,113.7536,217.0448,150.6459,243.3709,0.0002596,0.99632495,0.0000,10/29.1848/2023,2000,g 14.0,4.0
# From MPEC 2023-R20
C/2023 H3 (PANSTARRS),e,2.4893,55.0995,193.3146,13.62602,0.0195952,0.61597422,1.2367,04/22.0/2024,2000,g 10.0,4.0
# From MPEC 2023-SQ0
A/2023 H4,e,76.6186,230.8133,64.9192,141.5853,0.0005850,0.98502844,0.0000,08/08.8442/2023,2000,g 18.0,22.0
# From MPEC 2024-H50
C/2023 H5 (Lemmon),h,06/30.1547/2025,97.8667,159.4829,60.0788,1.000387,4.312990,2000,7.0,4.0
# From MPEC 2024-GJ3
C/2023 K1 (ATLAS),e,137.9985,223.7056,337.4591,735.1010,0.0000495,0.99722571,0.0000,09/07.7227/2023,2000,g 13.0,4.0
# From MPEC 2023-N01
P/2023 M1 (PANSTARRS),e,12.2883,216.8620,79.6891,6.846444,0.0550182,0.58722140,7.1307,04/22.0/2024,2000,g 13.5,4.0
# From MPEC 2024-BE0
P/2023 M2 (PANSTARRS),e,19.7256,83.2598,243.0716,5.565590,0.0750650,0.36956999,20.3753,04/22.0/2024,2000,g 12.5,4.0
# From MPEC 2024-GJ3
P/2023 M4 (ATLAS),e,7.5925,296.2951,320.6626,5.451210,0.0774399,0.27913514,57.1662,04/22.0/2024,2000,g  7.5,4.0
# From MPEC 2024-H50
C/2023 P1 (Nishimura),e,132.4770,66.8387,116.2951,57.01830,0.0022892,0.99605291,0.0000,09/17.6438/2023,2000,g 10.0,4.0
# From MPEC 2024-D33
C/2023 Q1 (PANSTARRS),h,12/01.2098/2024,36.6555,7.1541,84.4077,1.005069,2.575665,2000,10.0,4.0
# From MPEC 2023-XP6
C/2023 Q2 (PANSTARRS),e,104.0575,92.6794,171.7214,346.0796,0.0001531,0.99072638,0.0000,06/24.0684/2024,2000,g 11.5,4.0
# From MPEC 2024-D33
C/2023 R1 (PANSTARRS),h,04/13.8320/2026,149.3157,62.5519,144.2942,1.001283,3.569663,2000,6.0,4.0
# From MPEC 2024-GJ3
C/2023 R2 (PANSTARRS),h,08/12.1450/2024,30.6900,188.9157,337.2961,1.000235,0.905231,2000,10.5,4.0
# From MPEC 2023-UR6
A/2023 R3,e,12.0864,347.3511,86.8952,657.2952,0.0000585,0.99793460,0.0000,12/18.1835/2023,2000,g 20.0,22.0
# From MPEC 2024-GJ3
C/2023 RN3 (ATLAS),e,10.3567,207.0688,130.4178,10.16365,0.0304179,0.49090701,13.9573,04/22.0/2024,2000,g  7.5,4.0
# From MPEC 2024-GJ3
P/2023 S1,e,9.1495,317.3603,180.1248,3.851396,0.1303998,0.31972659,319.8782,04/22.0/2024,2000,g 11.5,4.0
# From MPEC 2023-XP6
C/2023 S2 (ATLAS),e,20.4858,230.5612,78.1215,158.3356,0.0004947,0.99325668,0.0000,10/15.4095/2023,2000,g 15.0,4.0
# From MPEC 2024-H50
C/2023 S3 (Lemmon),e,140.4981,233.8338,281.5724,28.48295,0.0064838,0.97085427,0.0000,01/19.6245/2024,2000,g 16.0,4.0
# From MPEC 2024-BE0
P/2023 T1 (PANSTARRS),e,6.6119,249.5745,202.8638,4.230319,0.1132777,0.33402308,356.4996,04/22.0/2024,2000,g 14.0,4.0
# From MPEC 2024-GJ3
C/2023 T2 (Borisov),e,48.5980,317.5321,111.1956,228.2857,0.0002857,0.99125894,0.0000,12/22.7925/2023,2000,g 14.5,4.0
# From MPEC 2024-H50
C/2023 T3 (Fuls),e,27.2221,246.0014,302.8481,712.8331,0.0000518,0.99502215,0.0000,01/25.3770/2025,2000,g  8.5,4.0
# From MPEC 2024-GJ3
C/2023 U1 (Fuls),e,108.1462,305.8094,255.6060,2266,0.0000091,0.99780550,0.0000,10/12.5932/2024,2000,g  8.0,4.0
# From MPEC 2024-GJ3
C/2023 V1 (Lemmon),e,102.0108,15.0277,103.3097,20007,0.0000003,0.99974545,0.0000,07/13.0767/2025,2000,g  8.5,4.0
# From MPEC 2024-D33
P/2023 V2 (PANSTARRS),e,9.8856,95.4724,330.5810,7.244029,0.0505515,0.57145650,3.9393,04/22.0/2024,2000,g 13.5,4.0
# From MPEC 2024-A43
C/2023 V3 (PANSTARRS),e,40.2924,91.4390,291.6308,13.26674,0.0203966,0.66288973,5.2885,04/22.0/2024,2000,g 11.5,4.0
# From MPEC 2024-GJ3
C/2023 V4 (Camarasa-Duszanowicz),h,05/30.3639/2024,67.1299,66.3258,50.8517,1.001035,1.121749,2000,12.0,4.0
# From MPEC 2024-GJ3
C/2023 V5 (Leonard),h,12/13.8685/2023,73.5794,31.5196,56.9564,1.009285,0.846218,2000,21.5,4.0
# From MPEC 2024-AF0
P/2023 V6 (PANSTARRS),e,3.9756,189.9931,193.7420,5.329741,0.0801023,0.17783840,39.5119,04/22.0/2024,2000,g 11.5,4.0
# From MPEC 2024-GJ3
C/2023 X1 (Leonard),e,110.5872,137.0117,321.4703,160.6199,0.0004842,0.99408226,0.0000,10/18.0839/2023,2000,g 13.5,3.2
# From MPEC 2024-DC6
C/2023 X2 (Lemmon),h,12/26.0664/2025,76.9895,66.3122,64.4662,1.001505,5.099875,2000,8.5,3.2
# From MPEC 2024-A43
P/2023 X3 (PANSTARRS),e,4.4834,62.0135,40.8101,4.247001,0.1126109,0.28652682,0.0094,04/22.0/2024,2000,g 15.5,4.0
# From MPEC 2024-EF7
C/2023 X4 (Hogan),e,11.5948,28.7655,100.5381,9.910079,0.0315928,0.63087878,358.9656,04/22.0/2024,2000,g 12.0,4.0
# From MPEC 2024-DA2
C/2023 X7 (PANSTARRS),h,05/14.8600/2025,69.0549,119.2083,354.3415,1.002216,4.821259,2000,9.0,4.0
# From MPEC 2024-GJ3
P/2023 Y1 (Gibbs),e,6.3841,78.8570,51.4360,3.748121,0.1358262,0.44510722,19.5914,04/22.0/2024,2000,g 17.0,4.0
# From MPEC 2024-F34
P/2023 Y2 (Gibbs),e,6.9927,79.2298,16.8202,3.744771,0.1360085,0.39219898,34.8330,04/22.0/2024,2000,g 15.5,4.0
# From MPEC 2024-H50
C/2024 A1 (ATLAS),h,06/13.6575/2025,94.4479,112.1385,353.2944,1.001392,3.875878,2000,7.0,4.0
# From MPEC 2024-H50
C/2024 A2 (ATLAS),e,119.1112,78.1674,295.5787,32.30553,0.0053677,0.94175542,359.9629,04/22.0/2024,2000,g 12.5,4.0
# From MPEC 2024-D33
C/2024 B1 (Lemmon),h,10/07.6924/2024,70.8990,79.1876,66.2080,1.001081,1.633599,2000,13.0,4.0
# From MPEC 2024-GJ3
C/2024 B2 (Lemmon),e,99.8384,294.3785,130.3183,5437,0.0000025,0.99925023,0.0000,10/06.0289/2023,2000,g 11.5,4.0
# From MPEC 2024-GJ3
C/2024 C1 (PANSTARRS),e,14.2268,83.8118,94.4734,10.55692,0.0287341,0.58199390,356.2375,04/22.0/2024,2000,g 11.5,4.0
# From MPEC 2024-EF7
C/2024 C2 (PANSTARRS),e,27.2839,66.4396,87.6233,16.18324,0.0151393,0.44448221,355.0912,04/22.0/2024,2000,g  6.0,4.0
# From MPEC 2024-GJ3
C/2024 C3 (PANSTARRS),e,22.4657,359.7084,159.6466,11.64333,0.0248078,0.42348084,4.1182,04/22.0/2024,2000,g  9.0,4.0
# From MPEC 2024-H50
C/2024 C4 (ATLAS),e,79.2868,220.6848,321.5224,83.78596,0.0012851,0.98244045,0.0000,01/30.1971/2024,2000,g 14.5,4.0
# From MPEC 2024-EG1
A/2024 D1,e,132.4554,179.6770,125.7224,1861,0.0000123,0.99639663,0.0000,12/04.8174/2027,2000,g 11.0,2.0
# From MPEC 2024-H50
C/2024 E1 (Wierzchos),h,01/20.5305/2026,75.2337,108.1112,243.6536,1.000130,0.564893,2000,7.0,4.0
# From MPEC 2024-GJ3
C/2024 E2 (Bok),e,155.6577,135.6537,357.9746,52.54023,0.0025880,0.85358840,0.4715,04/22.0/2024,2000,g  8.0,4.0
# From MPEC 2024-GJ3
P/2024 F1 (PANSTARRS),e,7.0129,251.4784,229.5787,3.444387,0.1541829,0.45973592,27.6901,04/22.0/2024,2000,g 16.0,4.0
# From MPEC 2024-H50
C/2024 F2 (PANSTARRS),e,13.7401,138.9821,112.6341,9.962493,0.0313438,0.60144099,356.9710,04/22.0/2024,2000,g 11.0,4.0
# From MPEC 2024-H50
